{
  "type": "FeatureCollection",
  "features": [
    {
      "type": "Feature",
      "properties": {
        "norad_id": 34141,
        "name": "COSMOS 2251 DEB",
        "group": "cosmos-2251-debris",
        "lat": 44.74613345901819,
        "lon": 29.26128603694596,
        "alt_km": 701.8463299714449,
        "timestamp": "2025-12-21T07:34:34.908475+00:00",
        "meta_object_name": "COSMOS 2251 DEB",
        "meta_object_id": "1993-036LN",
        "meta_epoch": "2025-12-20T12:10:11.273088",
        "meta_mean_motion": 14.49312266,
        "meta_eccentricity": 0.00465751,
        "meta_inclination": 74.0109,
        "meta_ra_of_asc_node": 14.2689,
        "meta_arg_of_pericenter": 97.7438,
        "meta_mean_anomaly": 52.5935,
        "meta_ephemeris_type": 0,
        "meta_classification_type": "U",
        "meta_norad_cat_id": 34141,
        "meta_element_set_no": 999,
        "meta_rev_at_epoch": 87806,
        "meta_bstar": 0.0008759088,
        "meta_mean_motion_dot": 3.364e-05,
        "meta_mean_motion_ddot": 0,
        "tle_line1": "1 34141U 93036LN  25354.50707492  .00003364  00000+0  87591-3 0  9995",
        "tle_line2": "2 34141  74.0109  14.2689 0046575  97.7438  52.5935 14.49312266878067"
      },
      "geometry": {
        "type": "Point",
        "coordinates": [
          29.26128603694596,
          44.74613345901819
        ]
      }
    },
    {
      "type": "Feature",
      "properties": {
        "norad_id": 34270,
        "name": "COSMOS 2251 DEB",
        "group": "cosmos-2251-debris",
        "lat": 42.34713156970882,
        "lon": 94.95211147457853,
        "alt_km": 653.0917112376737,
        "timestamp": "2025-12-21T07:34:34.908484+00:00",
        "meta_object_name": "COSMOS 2251 DEB",
        "meta_object_id": "1993-036LQ",
        "meta_epoch": "2025-12-20T21:07:59.009376",
        "meta_mean_motion": 14.65226535,
        "meta_eccentricity": 0.00478846,
        "meta_inclination": 74.0117,
        "meta_ra_of_asc_node": 290.9388,
        "meta_arg_of_pericenter": 81.2861,
        "meta_mean_anomaly": 279.3727,
        "meta_ephemeris_type": 0,
        "meta_classification_type": "U",
        "meta_norad_cat_id": 34270,
        "meta_element_set_no": 999,
        "meta_rev_at_epoch": 89215,
        "meta_bstar": 0.00047643275,
        "meta_mean_motion_dot": 2.579e-05,
        "meta_mean_motion_ddot": 0,
        "tle_line1": "1 34270U 93036LQ  25354.88054409  .00002579  00000+0  47643-3 0  9993",
        "tle_line2": "2 34270  74.0117 290.9388 0047884  81.2861 279.3727 14.65226535892155"
      },
      "geometry": {
        "type": "Point",
        "coordinates": [
          94.95211147457853,
          42.34713156970882
        ]
      }
    },
    {
      "type": "Feature",
      "properties": {
        "norad_id": 34271,
        "name": "COSMOS 2251 DEB",
        "group": "cosmos-2251-debris",
        "lat": -68.37809161987573,
        "lon": 48.966392313228276,
        "alt_km": 652.8051138781702,
        "timestamp": "2025-12-21T07:34:34.908493+00:00",
        "meta_object_name": "COSMOS 2251 DEB",
        "meta_object_id": "1993-036LR",
        "meta_epoch": "2025-12-20T06:44:08.467584",
        "meta_mean_motion": 14.70908358,
        "meta_eccentricity": 0.00184083,
        "meta_inclination": 74.019,
        "meta_ra_of_asc_node": 184.6741,
        "meta_arg_of_pericenter": 238.1631,
        "meta_mean_anomaly": 298.4774,
        "meta_ephemeris_type": 0,
        "meta_classification_type": "U",
        "meta_norad_cat_id": 34271,
        "meta_element_set_no": 999,
        "meta_rev_at_epoch": 88345,
        "meta_bstar": 0.0011954508,
        "meta_mean_motion_dot": 7.314e-05,
        "meta_mean_motion_ddot": 0,
        "tle_line1": "1 34271U 93036LR  25354.28065356  .00007314  00000+0  11955-2 0  9999",
        "tle_line2": "2 34271  74.0190 184.6741 0018408 238.1631 298.4774 14.70908358883450"
      },
      "geometry": {
        "type": "Point",
        "coordinates": [
          48.966392313228276,
          -68.37809161987573
        ]
      }
    },
    {
      "type": "Feature",
      "properties": {
        "norad_id": 34273,
        "name": "COSMOS 2251 DEB",
        "group": "cosmos-2251-debris",
        "lat": -20.16767952814834,
        "lon": 64.99602115710918,
        "alt_km": 701.5233194282819,
        "timestamp": "2025-12-21T07:34:34.908502+00:00",
        "meta_object_name": "COSMOS 2251 DEB",
        "meta_object_id": "1993-036LT",
        "meta_epoch": "2025-12-20T05:31:38.097984",
        "meta_mean_motion": 14.61288148,
        "meta_eccentricity": 0.0013706,
        "meta_inclination": 74.0364,
        "meta_ra_of_asc_node": 73.1054,
        "meta_arg_of_pericenter": 199.0057,
        "meta_mean_anomaly": 192.5449,
        "meta_ephemeris_type": 0,
        "meta_classification_type": "U",
        "meta_norad_cat_id": 34273,
        "meta_element_set_no": 999,
        "meta_rev_at_epoch": 88731,
        "meta_bstar": 0.00058813,
        "meta_mean_motion_dot": 2.878e-05,
        "meta_mean_motion_ddot": 0,
        "tle_line1": "1 34273U 93036LT  25354.23030206  .00002878  00000+0  58813-3 0  9997",
        "tle_line2": "2 34273  74.0364  73.1054 0013706 199.0057 192.5449 14.61288148887317"
      },
      "geometry": {
        "type": "Point",
        "coordinates": [
          64.99602115710918,
          -20.16767952814834
        ]
      }
    },
    {
      "type": "Feature",
      "properties": {
        "norad_id": 34274,
        "name": "COSMOS 2251 DEB",
        "group": "cosmos-2251-debris",
        "lat": 8.367754083346632,
        "lon": -130.37364867572742,
        "alt_km": 665.8034750858678,
        "timestamp": "2025-12-21T07:34:34.908511+00:00",
        "meta_object_name": "COSMOS 2251 DEB",
        "meta_object_id": "1993-036LU",
        "meta_epoch": "2025-12-20T15:06:03.163392",
        "meta_mean_motion": 14.64865123,
        "meta_eccentricity": 0.0021612,
        "meta_inclination": 74.004,
        "meta_ra_of_asc_node": 53.3668,
        "meta_arg_of_pericenter": 202.9402,
        "meta_mean_anomaly": 309.6942,
        "meta_ephemeris_type": 0,
        "meta_classification_type": "U",
        "meta_norad_cat_id": 34274,
        "meta_element_set_no": 999,
        "meta_rev_at_epoch": 88791,
        "meta_bstar": 0.00063321,
        "meta_mean_motion_dot": 3.365e-05,
        "meta_mean_motion_ddot": 0,
        "tle_line1": "1 34274U 93036LU  25354.62920328  .00003365  00000+0  63321-3 0  9996",
        "tle_line2": "2 34274  74.0040  53.3668 0021612 202.9402 309.6942 14.64865123887915"
      },
      "geometry": {
        "type": "Point",
        "coordinates": [
          -130.37364867572742,
          8.367754083346632
        ]
      }
    },
    {
      "type": "Feature",
      "properties": {
        "norad_id": 34276,
        "name": "COSMOS 2251 DEB",
        "group": "cosmos-2251-debris",
        "lat": -52.254198823451574,
        "lon": -89.26471908472116,
        "alt_km": 693.7556407389056,
        "timestamp": "2025-12-21T07:34:34.908520+00:00",
        "meta_object_name": "COSMOS 2251 DEB",
        "meta_object_id": "1993-036LW",
        "meta_epoch": "2025-12-20T23:04:19.053696",
        "meta_mean_motion": 14.57277235,
        "meta_eccentricity": 0.00223112,
        "meta_inclination": 74.0237,
        "meta_ra_of_asc_node": 69.6895,
        "meta_arg_of_pericenter": 215.8265,
        "meta_mean_anomaly": 321.1235,
        "meta_ephemeris_type": 0,
        "meta_classification_type": "U",
        "meta_norad_cat_id": 34276,
        "meta_element_set_no": 999,
        "meta_rev_at_epoch": 88712,
        "meta_bstar": 0.00046553331,
        "meta_mean_motion_dot": 2.084e-05,
        "meta_mean_motion_ddot": 0,
        "tle_line1": "1 34276U 93036LW  25354.96133164  .00002084  00000+0  46553-3 0  9994",
        "tle_line2": "2 34276  74.0237  69.6895 0022311 215.8265 321.1235 14.57277235887124"
      },
      "geometry": {
        "type": "Point",
        "coordinates": [
          -89.26471908472116,
          -52.254198823451574
        ]
      }
    },
    {
      "type": "Feature",
      "properties": {
        "norad_id": 34297,
        "name": "COSMOS 2251 DEB",
        "group": "cosmos-2251-debris",
        "lat": -27.72827138597365,
        "lon": -100.16128225478701,
        "alt_km": 762.5285380530204,
        "timestamp": "2025-12-21T07:34:34.908529+00:00",
        "meta_object_name": "COSMOS 2251 DEB",
        "meta_object_id": "1993-036MT",
        "meta_epoch": "2025-12-20T22:01:14.926368",
        "meta_mean_motion": 14.3663563,
        "meta_eccentricity": 0.0017591,
        "meta_inclination": 74.0487,
        "meta_ra_of_asc_node": 269.2161,
        "meta_arg_of_pericenter": 336.6153,
        "meta_mean_anomaly": 96.2166,
        "meta_ephemeris_type": 0,
        "meta_classification_type": "U",
        "meta_norad_cat_id": 34297,
        "meta_element_set_no": 999,
        "meta_rev_at_epoch": 88182,
        "meta_bstar": 9.72205e-05,
        "meta_mean_motion_dot": 2.6e-06,
        "meta_mean_motion_ddot": 0,
        "tle_line1": "1 34297U 93036MT  25354.91753387  .00000260  00000+0  97221-4 0  9990",
        "tle_line2": "2 34297  74.0487 269.2161 0017591 336.6153  96.2166 14.36635630881828"
      },
      "geometry": {
        "type": "Point",
        "coordinates": [
          -100.16128225478701,
          -27.72827138597365
        ]
      }
    }
  ]
}